[{"OBJECT_NAME":"KUIPER-00181","OBJECT_ID":"2025-301E","EPOCH":"2026-03-09T10:43:15.830400","MEAN_MOTION":14.76425199,"ECCENTRICITY":0.0001938,"INCLINATION":51.9027,"RA_OF_ASC_NODE":78.1683,"ARG_OF_PERICENTER":92.8246,"MEAN_ANOMALY":267.2937,"EPHEMERIS_TYPE":0,"CLASSIFICATION_TYPE":"U","NORAD_CAT_ID":67137,"ELEMENT_SET_NO":999,"REV_AT_EPOCH":1369,"BSTAR":0.00049021368,"MEAN_MOTION_DOT":3.227e-5,"MEAN_MOTION_DDOT":0},{"OBJECT_NAME":"FENGYUN 1C DEB","OBJECT_ID":"1999-025ALK","EPOCH":"2026-03-09T21:10:09.868224","MEAN_MOTION":14.79109247,"ECCENTRICITY":0.00080855,"INCLINATION":98.7381,"RA_OF_ASC_NODE":219.908,"ARG_OF_PERICENTER":183.3587,"MEAN_ANOMALY":176.7569,"EPHEMERIS_TYPE":0,"CLASSIFICATION_TYPE":"U","NORAD_CAT_ID":30569,"ELEMENT_SET_NO":999,"REV_AT_EPOCH":99492,"BSTAR":0.0044074437,"MEAN_MOTION_DOT":0.00032752,"MEAN_MOTION_DDOT":0}]
